CCSDS_OMM_VERS = 2.0
CREATION_DATE  = 
ORIGINATOR     = 

OBJECT_NAME    = ATLAS CENTAUR R/B
OBJECT_ID      = 1972-065B
CENTER_NAME    = EARTH
REF_FRAME      = TEME
TIME_SYSTEM    = UTC
MEAN_ELEMENT_THEORY = SGP/SGP4

EPOCH          = 2026-01-08T05:13:18.156000
MEAN_MOTION    = 14.77494473
ECCENTRICITY   = .00343969
INCLINATION    = 35.0025
RA_OF_ASC_NODE = 300.0906
ARG_OF_PERICENTER = 222.4155
MEAN_ANOMALY   = 137.3885

EPHEMERIS_TYPE = 0
CLASSIFICATION_TYPE = U
NORAD_CAT_ID   = 6155
ELEMENT_SET_NO = 999
REV_AT_EPOCH   = 83231
BSTAR          = .20138549E-3
MEAN_MOTION_DOT = .1451E-4
MEAN_MOTION_DDOT = 0

CCSDS_OMM_VERS = 2.0
CREATION_DATE  = 
ORIGINATOR     = 

OBJECT_NAME    = SL-8 R/B
OBJECT_ID      = 1975-112B
CENTER_NAME    = EARTH
REF_FRAME      = TEME
TIME_SYSTEM    = UTC
MEAN_ELEMENT_THEORY = SGP/SGP4

EPOCH          = 2026-01-08T01:19:37.521696
MEAN_MOTION    = 14.38166107
ECCENTRICITY   = .00165814
INCLINATION    = 74.0611
RA_OF_ASC_NODE = 130.4544
ARG_OF_PERICENTER = 239.2084
MEAN_ANOMALY   = 120.7438

EPHEMERIS_TYPE = 0
CLASSIFICATION_TYPE = U
NORAD_CAT_ID   = 8459
ELEMENT_SET_NO = 999
REV_AT_EPOCH   = 62315
BSTAR          = .10339124E-3
MEAN_MOTION_DOT = .288E-5
MEAN_MOTION_DDOT = 0

CCSDS_OMM_VERS = 2.0
CREATION_DATE  = 
ORIGINATOR     = 

OBJECT_NAME    = SL-3 R/B
OBJECT_ID      = 1977-057B
CENTER_NAME    = EARTH
REF_FRAME      = TEME
TIME_SYSTEM    = UTC
MEAN_ELEMENT_THEORY = SGP/SGP4

EPOCH          = 2026-01-08T05:02:41.413056
MEAN_MOTION    = 15.43701570
ECCENTRICITY   = .00081957
INCLINATION    = 97.5701
RA_OF_ASC_NODE = 177.5852
ARG_OF_PERICENTER = 134.6431
MEAN_ANOMALY   = 225.5486

EPHEMERIS_TYPE = 0
CLASSIFICATION_TYPE = U
NORAD_CAT_ID   = 10114
ELEMENT_SET_NO = 999
REV_AT_EPOCH   = 65899
BSTAR          = .2964817E-3
MEAN_MOTION_DOT = .13307E-3
MEAN_MOTION_DDOT = 0

CCSDS_OMM_VERS = 2.0
CREATION_DATE  = 
ORIGINATOR     = 

OBJECT_NAME    = SEASAT 1
OBJECT_ID      = 1978-064A
CENTER_NAME    = EARTH
REF_FRAME      = TEME
TIME_SYSTEM    = UTC
MEAN_ELEMENT_THEORY = SGP/SGP4

EPOCH          = 2026-01-08T05:54:08.523072
MEAN_MOTION    = 14.46097068
ECCENTRICITY   = .00011722
INCLINATION    = 108.0151
RA_OF_ASC_NODE = 358.6493
ARG_OF_PERICENTER = 268.9398
MEAN_ANOMALY   = 91.1614

EPHEMERIS_TYPE = 0
CLASSIFICATION_TYPE = U
NORAD_CAT_ID   = 10967
ELEMENT_SET_NO = 999
REV_AT_EPOCH   = 49777
BSTAR          = .17209566E-3
MEAN_MOTION_DOT = .478E-5
MEAN_MOTION_DDOT = 0

CCSDS_OMM_VERS = 2.0
CREATION_DATE  = 
ORIGINATOR     = 

OBJECT_NAME    = SL-14 R/B
OBJECT_ID      = 1979-011B
CENTER_NAME    = EARTH
REF_FRAME      = TEME
TIME_SYSTEM    = UTC
MEAN_ELEMENT_THEORY = SGP/SGP4

EPOCH          = 2026-01-08T03:34:00.716160
MEAN_MOTION    = 14.91812974
ECCENTRICITY   = .00146535
INCLINATION    = 82.5251
RA_OF_ASC_NODE = 153.9979
ARG_OF_PERICENTER = 258.9200
MEAN_ANOMALY   = 101.0371

EPHEMERIS_TYPE = 0
CLASSIFICATION_TYPE = U
NORAD_CAT_ID   = 11267
ELEMENT_SET_NO = 999
REV_AT_EPOCH   = 51975
BSTAR          = .70188055E-4
MEAN_MOTION_DOT = .734E-5
MEAN_MOTION_DDOT = 0

CCSDS_OMM_VERS = 2.0
CREATION_DATE  = 
ORIGINATOR     = 

OBJECT_NAME    = SL-8 R/B
OBJECT_ID      = 1979-089B
CENTER_NAME    = EARTH
REF_FRAME      = TEME
TIME_SYSTEM    = UTC
MEAN_ELEMENT_THEORY = SGP/SGP4

EPOCH          = 2026-01-08T06:19:05.683872
MEAN_MOTION    = 14.42302142
ECCENTRICITY   = .00151989
INCLINATION    = 74.0671
RA_OF_ASC_NODE = 202.8888
ARG_OF_PERICENTER = 26.9467
MEAN_ANOMALY   = 333.2475

EPHEMERIS_TYPE = 0
CLASSIFICATION_TYPE = U
NORAD_CAT_ID   = 11574
ELEMENT_SET_NO = 999
REV_AT_EPOCH   = 42739
BSTAR          = .1016801E-3
MEAN_MOTION_DOT = .31E-5
MEAN_MOTION_DDOT = 0

CCSDS_OMM_VERS = 2.0
CREATION_DATE  = 
ORIGINATOR     = 

OBJECT_NAME    = SL-14 R/B
OBJECT_ID      = 1980-005B
CENTER_NAME    = EARTH
REF_FRAME      = TEME
TIME_SYSTEM    = UTC
MEAN_ELEMENT_THEORY = SGP/SGP4

EPOCH          = 2026-01-08T06:08:52.579104
MEAN_MOTION    = 14.90832604
ECCENTRICITY   = .00160393
INCLINATION    = 82.5141
RA_OF_ASC_NODE = 4.5469
ARG_OF_PERICENTER = 11.0338
MEAN_ANOMALY   = 349.1230

EPHEMERIS_TYPE = 0
CLASSIFICATION_TYPE = U
NORAD_CAT_ID   = 11672
ELEMENT_SET_NO = 999
REV_AT_EPOCH   = 46748
BSTAR          = .80077939E-4
MEAN_MOTION_DOT = .815E-5
MEAN_MOTION_DDOT = 0

CCSDS_OMM_VERS = 2.0
CREATION_DATE  = 
ORIGINATOR     = 

OBJECT_NAME    = SL-8 R/B
OBJECT_ID      = 1981-003B
CENTER_NAME    = EARTH
REF_FRAME      = TEME
TIME_SYSTEM    = UTC
MEAN_ELEMENT_THEORY = SGP/SGP4

EPOCH          = 2026-01-07T22:57:18.055872
MEAN_MOTION    = 15.08143826
ECCENTRICITY   = .0273998
INCLINATION    = 82.9383
RA_OF_ASC_NODE = 346.0764
ARG_OF_PERICENTER = 30.3651
MEAN_ANOMALY   = 331.3129

EPHEMERIS_TYPE = 0
CLASSIFICATION_TYPE = U
NORAD_CAT_ID   = 12139
ELEMENT_SET_NO = 999
REV_AT_EPOCH   = 30551
BSTAR          = .58524E-3
MEAN_MOTION_DOT = .22174E-3
MEAN_MOTION_DDOT = 0

CCSDS_OMM_VERS = 2.0
CREATION_DATE  = 
ORIGINATOR     = 

OBJECT_NAME    = SL-3 R/B
OBJECT_ID      = 1981-046B
CENTER_NAME    = EARTH
REF_FRAME      = TEME
TIME_SYSTEM    = UTC
MEAN_ELEMENT_THEORY = SGP/SGP4

EPOCH          = 2026-01-08T06:30:15.420384
MEAN_MOTION    = 15.40279508
ECCENTRICITY   = .00181513
INCLINATION    = 81.2328
RA_OF_ASC_NODE = 2.1809
ARG_OF_PERICENTER = 225.5941
MEAN_ANOMALY   = 134.3816

EPHEMERIS_TYPE = 0
CLASSIFICATION_TYPE = U
NORAD_CAT_ID   = 12465
ELEMENT_SET_NO = 999
REV_AT_EPOCH   = 42912
BSTAR          = .32572881E-3
MEAN_MOTION_DOT = .13224E-3
MEAN_MOTION_DDOT = 0

CCSDS_OMM_VERS = 2.0
CREATION_DATE  = 
ORIGINATOR     = 

OBJECT_NAME    = SL-3 R/B
OBJECT_ID      = 1981-103B
CENTER_NAME    = EARTH
REF_FRAME      = TEME
TIME_SYSTEM    = UTC
MEAN_ELEMENT_THEORY = SGP/SGP4

EPOCH          = 2026-01-08T05:57:30.379392
MEAN_MOTION    = 15.20612518
ECCENTRICITY   = .00140772
INCLINATION    = 81.1594
RA_OF_ASC_NODE = 284.3031
ARG_OF_PERICENTER = 124.0947
MEAN_ANOMALY   = 236.1622

EPHEMERIS_TYPE = 0
CLASSIFICATION_TYPE = U
NORAD_CAT_ID   = 12904
ELEMENT_SET_NO = 999
REV_AT_EPOCH   = 96404
BSTAR          = .3076282E-3
MEAN_MOTION_DOT = .6786E-4
MEAN_MOTION_DDOT = 0

CCSDS_OMM_VERS = 2.0
CREATION_DATE  = 
ORIGINATOR     = 

OBJECT_NAME    = SL-3 R/B
OBJECT_ID      = 1982-013B
CENTER_NAME    = EARTH
REF_FRAME      = TEME
TIME_SYSTEM    = UTC
MEAN_ELEMENT_THEORY = SGP/SGP4

EPOCH          = 2026-01-08T06:47:56.730336
MEAN_MOTION    = 15.21358454
ECCENTRICITY   = .0023362
INCLINATION    = 81.1727
RA_OF_ASC_NODE = 231.5351
ARG_OF_PERICENTER = 25.5590
MEAN_ANOMALY   = 334.6791

EPHEMERIS_TYPE = 0
CLASSIFICATION_TYPE = U
NORAD_CAT_ID   = 13068
ELEMENT_SET_NO = 999
REV_AT_EPOCH   = 39516
BSTAR          = .1998881E-3
MEAN_MOTION_DOT = .4536E-4
MEAN_MOTION_DDOT = 0

CCSDS_OMM_VERS = 2.0
CREATION_DATE  = 
ORIGINATOR     = 

OBJECT_NAME    = SL-3 R/B
OBJECT_ID      = 1982-039B
CENTER_NAME    = EARTH
REF_FRAME      = TEME
TIME_SYSTEM    = UTC
MEAN_ELEMENT_THEORY = SGP/SGP4

EPOCH          = 2026-01-08T05:14:55.803552
MEAN_MOTION    = 15.09715147
ECCENTRICITY   = .00297147
INCLINATION    = 81.1690
RA_OF_ASC_NODE = 285.6293
ARG_OF_PERICENTER = 162.7048
MEAN_ANOMALY   = 197.5198

EPHEMERIS_TYPE = 0
CLASSIFICATION_TYPE = U
NORAD_CAT_ID   = 13154
ELEMENT_SET_NO = 999
REV_AT_EPOCH   = 37251
BSTAR          = .18749691E-3
MEAN_MOTION_DOT = .3076E-4
MEAN_MOTION_DDOT = 0

