ATLAS CENTAUR R/B       
1 06155U 72065B   26008.21757125  .00001451  00000+0  20139-3 0  9991
2 06155  35.0025 300.0906 0034396 222.4155 137.3885 14.77494473832310
SL-8 R/B                
1 08459U 75112B   26008.05529539  .00000288  00000+0  10339-3 0  9992
2 08459  74.0611 130.4544 0016581 239.2084 120.7438 14.38166107623156
SL-3 R/B                
1 10114U 77057B   26008.21020154  .00013307  00000+0  29648-3 0  9999
2 10114  97.5701 177.5852 0008195 134.6431 225.5486 15.43701570658990
SEASAT 1                
1 10967U 78064A   26008.24593198  .00000478  00000+0  17210-3 0  9997
2 10967 108.0151 358.6493 0001172 268.9398  91.1614 14.46097068497776
SL-14 R/B               
1 11267U 79011B   26008.14861940  .00000734  00000+0  70188-4 0  9995
2 11267  82.5251 153.9979 0014653 258.9200 101.0371 14.91812974519756
SL-8 R/B                
1 11574U 79089B   26008.26326023  .00000310  00000+0  10168-3 0  9993
2 11574  74.0671 202.8888 0015198  26.9467 333.2475 14.42302142427394
SL-14 R/B               
1 11672U 80005B   26008.25616411  .00000815  00000+0  80078-4 0  9992
2 11672  82.5141   4.5469 0016039  11.0338 349.1230 14.90832604467481
SL-8 R/B                
1 12139U 81003B   26007.95645898  .00022174  00000+0  58524-3 0  9999
2 12139  82.9383 346.0764 0273998  30.3651 331.3129 15.08143826305511
SL-3 R/B                
1 12465U 81046B   26008.27101181  .00013224  00000+0  32573-3 0  9998
2 12465  81.2328   2.1809 0018151 225.5941 134.3816 15.40279508429123
SL-3 R/B                
1 12904U 81103B   26008.24826828  .00006786  00000+0  30763-3 0  9993
2 12904  81.1594 284.3031 0014077 124.0947 236.1622 15.20612518964049
SL-3 R/B                
1 13068U 82013B   26008.28329549  .00004536  00000+0  19989-3 0  9996
2 13068  81.1727 231.5351 0023362  25.5590 334.6791 15.21358454395163
SL-3 R/B                
1 13154U 82039B   26008.21870143  .00003076  00000+0  18750-3 0  9997
2 13154  81.1690 285.6293 0029714 162.7048 197.5198 15.09715147372515
